[{"OBJECT_NAME":"STARLINK-3354","OBJECT_ID":"2022-005AU","EPOCH":"2026-03-09T21:54:02.599776","MEAN_MOTION":15.08835371,"ECCENTRICITY":0.00012815,"INCLINATION":53.2169,"RA_OF_ASC_NODE":298.1334,"ARG_OF_PERICENTER":67.0031,"MEAN_ANOMALY":293.1096,"EPHEMERIS_TYPE":0,"CLASSIFICATION_TYPE":"U","NORAD_CAT_ID":51146,"ELEMENT_SET_NO":999,"REV_AT_EPOCH":22876,"BSTAR":-0.00010150385,"MEAN_MOTION_DOT":-1.903e-5,"MEAN_MOTION_DDOT":0},{"OBJECT_NAME":"CZ-2D R\/B","OBJECT_ID":"2010-027B","EPOCH":"2026-03-09T19:01:31.304352","MEAN_MOTION":15.02332282,"ECCENTRICITY":0.00475082,"INCLINATION":97.9913,"RA_OF_ASC_NODE":95.0303,"ARG_OF_PERICENTER":252.3591,"MEAN_ANOMALY":107.2442,"EPHEMERIS_TYPE":0,"CLASSIFICATION_TYPE":"U","NORAD_CAT_ID":36597,"ELEMENT_SET_NO":999,"REV_AT_EPOCH":85595,"BSTAR":0.00022535675,"MEAN_MOTION_DOT":2.983e-5,"MEAN_MOTION_DDOT":0}]
